[{"OBJECT_NAME":"TYVAK-0130","OBJECT_ID":"2021-041BF","EPOCH":"2026-03-09T11:37:42.710304","MEAN_MOTION":15.26049141,"ECCENTRICITY":0.0008953,"INCLINATION":52.9967,"RA_OF_ASC_NODE":128.603,"ARG_OF_PERICENTER":215.1647,"MEAN_ANOMALY":144.876,"EPHEMERIS_TYPE":0,"CLASSIFICATION_TYPE":"U","NORAD_CAT_ID":48606,"ELEMENT_SET_NO":999,"REV_AT_EPOCH":26515,"BSTAR":0.0003519806,"MEAN_MOTION_DOT":8.857e-5,"MEAN_MOTION_DDOT":0},{"OBJECT_NAME":"STARLINK-35820","OBJECT_ID":"2025-270K","EPOCH":"2026-03-09T22:38:50.901216","MEAN_MOTION":15.27584678,"ECCENTRICITY":0.0001503,"INCLINATION":43.0048,"RA_OF_ASC_NODE":54.8394,"ARG_OF_PERICENTER":240.2274,"MEAN_ANOMALY":119.8429,"EPHEMERIS_TYPE":0,"CLASSIFICATION_TYPE":"U","NORAD_CAT_ID":66597,"ELEMENT_SET_NO":999,"REV_AT_EPOCH":1785,"BSTAR":0.0011455077,"MEAN_MOTION_DOT":0.00031399,"MEAN_MOTION_DDOT":0}]
